{"type": "FeatureCollection", "features": [ {"type": "Feature", "properties": {"norad_id": 66494, "name": "STARLINK-35689", "group": "last-30-days", "lat": -38.03973782608478, "lon": 4.179553230249213, "alt_km": 421.9909934820744, "timestamp": "2025-12-12T09:49:07.480565+00:00", "meta": {"OBJECT_NAME": "STARLINK-35689", "OBJECT_ID": "2025-263K", "EPOCH": "2025-12-12T00:00:04.999104", "MEAN_MOTION": 15.50772647, "ECCENTRICITY": 9.16e-05, "INCLINATION": 43.0002, "RA_OF_ASC_NODE": 129.4704, "ARG_OF_PERICENTER": 269.0531, "MEAN_ANOMALY": 210.4733, "EPHEMERIS_TYPE": 0, "CLASSIFICATION_TYPE": "U", "NORAD_CAT_ID": 66494, "ELEMENT_SET_NO": 999, "REV_AT_EPOCH": 551, "BSTAR": -0.037144, "MEAN_MOTION_DOT": -0.01964096, "MEAN_MOTION_DDOT": 0}, "tle": {"line1": "1 66494U 25263K   25346.00005786 -.01964096  00000+0 -37144-1 0  9999", "line2": "2 66494  43.0002 129.4704 0000916 269.0531 210.4733 15.50772647  5514"}}, "geometry": {"type": "Point", "coordinates": [4.179553230249213, -38.03973782608478]}}, {"type": "Feature", "properties": {"norad_id": 66495, "name": "STARLINK-35832", "group": "last-30-days", "lat": -40.77089380128743, "lon": 14.778775917587673, "alt_km": 417.4640767864521, "timestamp": "2025-12-12T09:49:07.480575+00:00", "meta": {"OBJECT_NAME": "STARLINK-35832", "OBJECT_ID": "2025-263L", "EPOCH": "2025-12-12T00:00:04.999104", "MEAN_MOTION": 15.50528078, "ECCENTRICITY": 0.0001618, "INCLINATION": 43.0001, "RA_OF_ASC_NODE": 129.4504, "ARG_OF_PERICENTER": 288.52, "MEAN_ANOMALY": 198.6964, "EPHEMERIS_TYPE": 0, "CLASSIFICATION_TYPE": "U", "NORAD_CAT_ID": 66495, "ELEMENT_SET_NO": 999, "REV_AT_EPOCH": 551, "BSTAR": 0.00096669, "MEAN_MOTION_DOT": 0.00056678, "MEAN_MOTION_DDOT": 0}, "tle": {"line1": "1 66495U 25263L   25346.00005786  .00056678  00000+0  96669-3 0  9994", "line2": "2 66495  43.0001 129.4504 0001618 288.5200 198.6964 15.50528078  5511"}}, "geometry": {"type": "Point", "coordinates": [14.778775917587673, -40.77089380128743]}}, {"type": "Feature", "properties": {"norad_id": 66496, "name": "STARLINK-35909", "group": "last-30-days", "lat": -41.2367293466553, "lon": 17.215956482861426, "alt_km": 417.3613945124707, "timestamp": "2025-12-12T09:49:07.480585+00:00", "meta": {"OBJECT_NAME": "STARLINK-35909", "OBJECT_ID": "2025-263M", "EPOCH": "2025-12-12T00:00:04.999104", "MEAN_MOTION": 15.50511169, "ECCENTRICITY": 0.0001629, "INCLINATION": 43.0003, "RA_OF_ASC_NODE": 129.4454, "ARG_OF_PERICENTER": 276.5943, "MEAN_ANOMALY": 212.5392, "EPHEMERIS_TYPE": 0, "CLASSIFICATION_TYPE": "U", "NORAD_CAT_ID": 66496, "ELEMENT_SET_NO": 999, "REV_AT_EPOCH": 551, "BSTAR": 0.0011925, "MEAN_MOTION_DOT": 0.00070077, "MEAN_MOTION_DDOT": 0}, "tle": {"line1": "1 66496U 25263M   25346.00005786  .00070077  00000+0  11925-2 0  9995", "line2": "2 66496  43.0003 129.4454 0001629 276.5943 212.5392 15.50511169  5515"}}, "geometry": {"type": "Point", "coordinates": [17.215956482861426, -41.2367293466553]}}, {"type": "Feature", "properties": {"norad_id": 66497, "name": "STARLINK-35899", "group": "last-30-days", "lat": -41.654831996822274, "lon": 19.716586460874385, "alt_km": 417.3547285926097, "timestamp": "2025-12-12T09:49:07.480596+00:00", "meta": {"OBJECT_NAME": "STARLINK-35899", "OBJECT_ID": "2025-263N", "EPOCH": "2025-12-12T00:00:04.999104", "MEAN_MOTION": 15.50504116, "ECCENTRICITY": 0.0001647, "INCLINATION": 43.0004, "RA_OF_ASC_NODE": 129.4407, "ARG_OF_PERICENTER": 278.3763, "MEAN_ANOMALY": 212.6859, "EPHEMERIS_TYPE": 0, "CLASSIFICATION_TYPE": "U", "NORAD_CAT_ID": 66497, "ELEMENT_SET_NO": 999, "REV_AT_EPOCH": 551, "BSTAR": 0.0014364, "MEAN_MOTION_DOT": 0.00084614, "MEAN_MOTION_DDOT": 0}, "tle": {"line1": "1 66497U 25263N   25346.00005786  .00084614  00000+0  14364-2 0  9998", "line2": "2 66497  43.0004 129.4407 0001647 278.3763 212.6859 15.50504116  5518"}}, "geometry": {"type": "Point", "coordinates": [19.716586460874385, -41.654831996822274]}}, {"type": "Feature", "properties": {"norad_id": 66498, "name": "STARLINK-35907", "group": "last-30-days", "lat": -3.4203252813186285, "lon": -49.101236893918426, "alt_km": 443.88772133797374, "timestamp": "2025-12-12T09:49:07.480608+00:00", "meta": {"OBJECT_NAME": "STARLINK-35907", "OBJECT_ID": "2025-263P", "EPOCH": "2025-12-12T04:00:01.998720", "MEAN_MOTION": 15.40691025, "ECCENTRICITY": 0.0001454, "INCLINATION": 43.0005, "RA_OF_ASC_NODE": 128.6188, "ARG_OF_PERICENTER": 253.7003, "MEAN_ANOMALY": 25.0392, "EPHEMERIS_TYPE": 0, "CLASSIFICATION_TYPE": "U", "NORAD_CAT_ID": 66498, "ELEMENT_SET_NO": 999, "REV_AT_EPOCH": 554, "BSTAR": 0.00091932, "MEAN_MOTION_DOT": 0.0003828, "MEAN_MOTION_DDOT": 0}, "tle": {"line1": "1 66498U 25263P   25346.16668980  .00038280  00000+0  91932-3 0  9992", "line2": "2 66498  43.0005 128.6188 0001454 253.7003  25.0392 15.40691025  5543"}}, "geometry": {"type": "Point", "coordinates": [-49.101236893918426, -3.4203252813186285]}}, {"type": "Feature", "properties": {"norad_id": 66499, "name": "STARLINK-35816", "group": "last-30-days", "lat": -27.38330965555105, "lon": -19.09969985580173, "alt_km": 445.6021190905485, "timestamp": "2025-12-12T09:49:07.480619+00:00", "meta": {"OBJECT_NAME": "STARLINK-35816", "OBJECT_ID": "2025-263Q", "EPOCH": "2025-12-12T04:00:01.998720", "MEAN_MOTION": 15.41241855, "ECCENTRICITY": 0.0001354, "INCLINATION": 43.0007, "RA_OF_ASC_NODE": 128.5292, "ARG_OF_PERICENTER": 266.519, "MEAN_ANOMALY": 49.353, "EPHEMERIS_TYPE": 0, "CLASSIFICATION_TYPE": "U", "NORAD_CAT_ID": 66499, "ELEMENT_SET_NO": 999, "REV_AT_EPOCH": 554, "BSTAR": -0.020658, "MEAN_MOTION_DOT": -0.00804318, "MEAN_MOTION_DDOT": 0}, "tle": {"line1": "1 66499U 25263Q   25346.16668980 -.00804318  00000+0 -20658-1 0  9993", "line2": "2 66499  43.0007 128.5292 0001354 266.5190  49.3530 15.41241855  5545"}}, "geometry": {"type": "Point", "coordinates": [-19.09969985580173, -27.38330965555105]}}, {"type": "Feature", "properties": {"norad_id": 66500, "name": "STARLINK-35894", "group": "last-30-days", "lat": 13.354182000445856, "lon": -67.47470535783788, "alt_km": 442.5673157754709, "timestamp": "2025-12-12T09:49:07.480630+00:00", "meta": {"OBJECT_NAME": "STARLINK-35894", "OBJECT_ID": "2025-263R", "EPOCH": "2025-12-12T04:00:01.998720", "MEAN_MOTION": 15.40646094, "ECCENTRICITY": 0.0001956, "INCLINATION": 43.0008, "RA_OF_ASC_NODE": 128.6808, "ARG_OF_PERICENTER": 273.5533, "MEAN_ANOMALY": 340.4117, "EPHEMERIS_TYPE": 0, "CLASSIFICATION_TYPE": "U", "NORAD_CAT_ID": 66500, "ELEMENT_SET_NO": 999, "REV_AT_EPOCH": 554, "BSTAR": 0.0011649, "MEAN_MOTION_DOT": 0.00048582, "MEAN_MOTION_DDOT": 0}, "tle": {"line1": "1 66500U 25263R   25346.16668980  .00048582  00000+0  11649-2 0  9998", "line2": "2 66500  43.0008 128.6808 0001956 273.5533 340.4117 15.40646094  5549"}}, "geometry": {"type": "Point", "coordinates": [-67.47470535783788, 13.354182000445856]}}, {"type": "Feature", "properties": {"norad_id": 66501, "name": "STARLINK-35897", "group": "last-30-days", "lat": -37.911436808387066, "lon": 3.770504918244201, "alt_km": 438.3357456143003, "timestamp": "2025-12-12T09:49:07.480640+00:00", "meta": {"OBJECT_NAME": "STARLINK-35897", "OBJECT_ID": "2025-263S", "EPOCH": "2025-12-12T04:00:01.998720", "MEAN_MOTION": 15.44513519, "ECCENTRICITY": 0.000145, "INCLINATION": 43.0006, "RA_OF_ASC_NODE": 128.4821, "ARG_OF_PERICENTER": 266.0638, "MEAN_ANOMALY": 69.1674, "EPHEMERIS_TYPE": 0, "CLASSIFICATION_TYPE": "U", "NORAD_CAT_ID": 66501, "ELEMENT_SET_NO": 999, "REV_AT_EPOCH": 554, "BSTAR": -0.048984, "MEAN_MOTION_DOT": -0.02065838, "MEAN_MOTION_DDOT": 0}, "tle": {"line1": "1 66501U 25263S   25346.16668980 -.02065838  00000+0 -48984-1 0  9997", "line2": "2 66501  43.0006 128.4821 0001450 266.0638  69.1674 15.44513519  5545"}}, "geometry": {"type": "Point", "coordinates": [3.770504918244201, -37.911436808387066]}}, {"type": "Feature", "properties": {"norad_id": 66502, "name": "STARLINK-35922", "group": "last-30-days", "lat": -42.97748773214355, "lon": 37.75083385358414, "alt_km": 417.30187388577633, "timestamp": "2025-12-12T09:49:07.480650+00:00", "meta": {"OBJECT_NAME": "STARLINK-35922", "OBJECT_ID": "2025-263T", "EPOCH": "2025-12-12T00:00:04.999104", "MEAN_MOTION": 15.50508444, "ECCENTRICITY": 0.0001713, "INCLINATION": 43.0003, "RA_OF_ASC_NODE": 129.4062, "ARG_OF_PERICENTER": 276.5913, "MEAN_ANOMALY": 227.8901, "EPHEMERIS_TYPE": 0, "CLASSIFICATION_TYPE": "U", "NORAD_CAT_ID": 66502, "ELEMENT_SET_NO": 999, "REV_AT_EPOCH": 551, "BSTAR": 0.0011849, "MEAN_MOTION_DOT": 0.00069615, "MEAN_MOTION_DDOT": 0}, "tle": {"line1": "1 66502U 25263T   25346.00005786  .00069615  00000+0  11849-2 0  9994", "line2": "2 66502  43.0003 129.4062 0001713 276.5913 227.8901 15.50508444  5516"}}, "geometry": {"type": "Point", "coordinates": [37.75083385358414, -42.97748773214355]}}, {"type": "Feature", "properties": {"norad_id": 66503, "name": "STARLINK-35917", "group": "last-30-days", "lat": -42.973391442011476, "lon": 35.793477647620605, "alt_km": 427.7126703112881, "timestamp": "2025-12-12T09:49:07.480660+00:00", "meta": {"OBJECT_NAME": "STARLINK-35917", "OBJECT_ID": "2025-263U", "EPOCH": "2025-12-11T20:00:01.999872", "MEAN_MOTION": 15.49488372, "ECCENTRICITY": 0.0001435, "INCLINATION": 43.0003, "RA_OF_ASC_NODE": 130.3745, "ARG_OF_PERICENTER": 271.7266, "MEAN_ANOMALY": 24.491, "EPHEMERIS_TYPE": 0, "CLASSIFICATION_TYPE": "U", "NORAD_CAT_ID": 66503, "ELEMENT_SET_NO": 999, "REV_AT_EPOCH": 549, "BSTAR": -0.040073527, "MEAN_MOTION_DOT": -0.0201763, "MEAN_MOTION_DDOT": 0}, "tle": {"line1": "1 66503U 25263U   25345.83335648 -.02017630  00000+0 -40074-1 0  9993", "line2": "2 66503  43.0003 130.3745 0001435 271.7266  24.4910 15.49488372  5498"}}, "geometry": {"type": "Point", "coordinates": [35.793477647620605, -42.973391442011476]}}]}